[{"OBJECT_NAME":"STARLINK-34137","OBJECT_ID":"2025-099B","EPOCH":"2026-03-09T08:22:49.596096","MEAN_MOTION":15.27594804,"ECCENTRICITY":8.534e-5,"INCLINATION":43.0034,"RA_OF_ASC_NODE":178.2024,"ARG_OF_PERICENTER":278.3603,"MEAN_ANOMALY":81.7152,"EPHEMERIS_TYPE":0,"CLASSIFICATION_TYPE":"U","NORAD_CAT_ID":63953,"ELEMENT_SET_NO":999,"REV_AT_EPOCH":4728,"BSTAR":0.0009667544,"MEAN_MOTION_DOT":0.00026448,"MEAN_MOTION_DDOT":0},{"OBJECT_NAME":"PEGASUS R\/B","OBJECT_ID":"2007-015B","EPOCH":"2026-03-09T10:58:33.801024","MEAN_MOTION":15.26741121,"ECCENTRICITY":0.00105976,"INCLINATION":97.9168,"RA_OF_ASC_NODE":31.3919,"ARG_OF_PERICENTER":317.6341,"MEAN_ANOMALY":42.4077,"EPHEMERIS_TYPE":0,"CLASSIFICATION_TYPE":"U","NORAD_CAT_ID":31305,"ELEMENT_SET_NO":999,"REV_AT_EPOCH":3383,"BSTAR":0.00044093522,"MEAN_MOTION_DOT":0.00011537,"MEAN_MOTION_DDOT":0}]
